COSMOS 2433 (720)       
1 32275U 07052A   22109.18067469 -.00000058  00000+0  00000+0 0  9990
2 32275  66.0841   6.6365 0002175 292.6495 216.0100  2.13104176112700
COSMOS 2432 (719)       
1 32276U 07052B   22109.03847703 -.00000058  00000+0  00000+0 0  9992
2 32276  66.0974   6.7411 0011328 334.6906  13.3631  2.13103557112692
COSMOS 2434 (721)       
1 32393U 07065A   22108.83398999  .00000031  00000+0  00000+0 0  9991
2 32393  64.3962 243.4593 0004438  82.4848  49.5551  2.13103098111408
COSMOS 2436 (723)       
1 32395U 07065C   22108.95507025  .00000031  00000+0  00000+0 0  9998
2 32395  64.4056 243.5121 0015806   6.1933 354.6510  2.13103051111349
COSMOS 2456 (730)       
1 36111U 09070A   22109.35713421  .00000070  00000+0  00000+0 0  9993
2 36111  64.3372 123.0839 0005973 300.9758  38.7988  2.13099280 96070
COSMOS 2457 (733)       
1 36112U 09070B   22109.16333231  .00000071  00000+0  00000+0 0  9991
2 36112  64.3204 122.9668 0004454 196.9679 120.9525  2.13101467 96073
COSMOS 2461 (735)       
1 36401U 10007B   22108.55540323 -.00000056  00000+0  00000+0 0  9992
2 36401  65.9675   5.5072 0022084   8.1602 238.2961  2.13103753 94410
COSMOS 2460 (732)       
1 36402U 10007C   22108.54493657 -.00000056  00000+0  00000+0 0  9999
2 36402  65.9567   5.4548 0002147  10.5656 175.7123  2.13106409 94418
COSMOS 2464 (736)       
1 37139U 10041C   22109.07409389  .00000031  00000+0  00000+0 0  9995
2 37139  63.9951 242.5562 0029475  13.4373 161.4783  2.13100809 90487
COSMOS 2476 (744)       
1 37867U 11064A   22109.19661635  .00000072  00000+0  00000+0 0  9991
2 37867  64.6273 124.4220 0023096 240.6934 240.9464  2.13101915 81421
COSMOS 2477 (745)       
1 37868U 11064B   22109.24488547  .00000072  00000+0  00000+0 0  9997
2 37868  64.6350 124.4846 0020524 242.4112  94.4003  2.13101736 81379
COSMOS 2475 (743)       
1 37869U 11064C   22109.57270218  .00000069  00000+0  00000+0 0  9994
2 37869  64.6432 124.4814 0025126 258.2332 288.0179  2.13101974 81399
COSMOS 2485 (747)       
1 39155U 13019A   22108.52150858  .00000078  00000+0  00000+0 0  9997
2 39155  64.7913 124.8605 0023418 236.7039 131.4111  2.13101933 69885
COSMOS 2492 (754)       
1 39620U 14012A   22109.17759655 -.00000058  00000+0  00000+0 0  9999
2 39620  65.8440   5.1244 0014361 329.2534 216.7291  2.13103273 62848
COSMOS 2500 (755)       
1 40001U 14032A   22109.29203706 -.00000059  00000+0  00000+0 0  9991
2 40001  65.7821   4.9867 0004305 201.6086 290.9885  2.13102450 61067
COSMOS 2501 (702K)      
1 40315U 14075A   22109.15408348  .00000031  00000+0  00000+0 0  9999
2 40315  63.7029 243.2450 0017040 205.9775 348.4825  2.13101508 57466
COSMOS 2514 (751)       
1 41330U 16008A   22108.59813235 -.00000056  00000+0  00000+0 0  9995
2 41330  65.5835   4.7170 0007936 215.6918 288.2925  2.13102936 48219
COSMOS 2516 (753)       
1 41554U 16032A   22109.56497706  .00000032  00000+0  00000+0 0  9992
2 41554  63.9294 243.4889 0012915 212.1899 215.0605  2.13106194 45849
COSMOS 2522 (752)       
1 42939U 17055A   22108.77337384  .00000030  00000+0  00000+0 0  9991
2 42939  64.1632 243.8953 0006132 238.9122 158.8327  2.13102058 35581
COSMOS 2527 (756)       
1 43508U 18053A   22109.24639854  .00000072  00000+0  00000+0 0  9999
2 43508  64.9549 124.8234 0009706 241.3977 191.3441  2.13102628 29883
COSMOS 2529 (757)       
1 43687U 18086A   22108.81911480  .00000030  00000+0  00000+0 0  9997
2 43687  64.3790 244.1936 0007696 270.4766 117.8729  2.13102185 26891
COSMOS 2534 (758)       
1 44299U 19030A   22108.60763037  .00000030  00000+0  00000+0 0  9997
2 44299  64.4506 244.0799 0010743 293.1552  67.5572  2.13102052 22532
COSMOS 2544 (759)       
1 44850U 19088A   22108.24240315  .00000081  00000+0  00000+0 0  9998
2 44850  64.9392 124.7109 0014552 263.3992 162.6258  2.13102415 18290
COSMOS 2545 (760)       
1 45358U 20018A   22108.59216000 -.00000058  00000+0  00000+0 0  9994
2 45358  64.9208   5.3747 0008127 260.7049 283.1987  2.13102738 16257
COSMOS 2547 (705K)      
1 46805U 20075A   22109.57938478  .00000033  00000+0  00000+0 0  9996
2 46805  64.6732 243.4538 0005755 243.6432 190.0476  2.13103194 11528
